0 INTELSAT 510
1 15629U 85025A   13281.05839861 -.00000209  00000-0  10000-3 0   973
2 15629 014.8383 022.2265 0028641 250.0343 109.6623 00.98287680 69706
0 INTELSAT 510
1 15629U 85025A   13283.09316216 -.00000204  00000-0  10000-3 0   989
2 15629 014.8403 022.2043 0028400 250.3838 109.3108 00.98287325 69721
0 INTELSAT 510
1 15629U 85025A   13287.16271829 -.00000137  00000-0  10000-3 0   997
2 15629 014.8446 022.1605 0028484 250.4577 109.2279 00.98285961 69760
0 INTELSAT 510
1 15629U 85025A   13288.18011036 -.00000114  00000-0  10000-3 0  1000
2 15629 014.8459 022.1497 0028707 250.2359 109.4417 00.98285576 69776
0 INTELSAT 510
1 15629U 85025A   13292.24971486 -.00000038  00000-0  10000-3 0  1012
2 15629 014.8507 022.1063 0028836 250.0867 109.5769 00.98284602 69819
0 INTELSAT 510
1 15629U 85025A   13294.28455862 -.00000023  00000-0  10000-3 0  1028
2 15629 014.8530 022.0839 0028970 249.9374 109.7275 00.98284532 69832
